{
    "links": {
        "self": "http://www.neowsapp.com/rest/v1/neo/3776118?api_key=iIulBulltgU6a56xZRHN4H3l9WmuAYTsLGpBGhQ2"
    },
    "id": "3776118",
    "neo_reference_id": "3776118",
    "name": "(2017 MT7)",
    "designation": "2017 MT7",
    "nasa_jpl_url": "http://ssd.jpl.nasa.gov/sbdb.cgi?sstr=3776118",
    "absolute_magnitude_h": 24.3,
    "estimated_diameter": {
        "kilometers": {
            "estimated_diameter_min": 0.0366906138,
            "estimated_diameter_max": 0.0820427065
        },
        "meters": {
            "estimated_diameter_min": 36.6906137531,
            "estimated_diameter_max": 82.0427064882
        },
        "miles": {
            "estimated_diameter_min": 0.0227984834,
            "estimated_diameter_max": 0.0509789586
        },
        "feet": {
            "estimated_diameter_min": 120.3760332259,
            "estimated_diameter_max": 269.1689931548
        }
    },
    "is_potentially_hazardous_asteroid": false,
    "close_approach_data": [
        {
            "close_approach_date": "2017-06-17",
            "close_approach_date_full": "2017-Jun-17 15:06",
            "epoch_date_close_approach": 1497711960000,
            "relative_velocity": {
                "kilometers_per_second": "9.0047198202",
                "kilometers_per_hour": "32416.9913526877",
                "miles_per_hour": "20142.6577657853"
            },
            "miss_distance": {
                "astronomical": "0.0386580155",
                "lunar": "15.0379680295",
                "kilometers": "5783156.777226985",
                "miles": "3593486.989162993"
            },
            "orbiting_body": "Earth"
        }
    ],
    "orbital_data": {
        "orbit_id": "3",
        "orbit_determination_date": "2017-07-06 06:18:11",
        "first_observation_date": "2017-06-27",
        "last_observation_date": "2017-07-05",
        "data_arc_in_days": 8,
        "observations_used": 34,
        "orbit_uncertainty": "9",
        "minimum_orbit_intersection": ".0164226",
        "jupiter_tisserand_invariant": "3.763",
        "epoch_osculation": "2457938.5",
        "eccentricity": ".5043927430071303",
        "semi_major_axis": "1.912943661682201",
        "inclination": "5.153390544081097",
        "ascending_node_longitude": "103.3514015997527",
        "orbital_period": "966.3883738236724",
        "perihelion_distance": ".9480687609482116",
        "perihelion_argument": "131.8909507001624",
        "aphelion_distance": "2.87781856241619",
        "perihelion_time": "2457896.350827938860",
        "mean_anomaly": "15.70145332147694",
        "mean_motion": ".3725210378676242",
        "equinox": "J2000",
        "orbit_class": {
            "orbit_class_type": "APO",
            "orbit_class_description": "Near-Earth asteroid orbits which cross the Earth’s orbit similar to that of 1862 Apollo",
            "orbit_class_range": "a (semi-major axis) > 1.0 AU; q (perihelion) < 1.017 AU"
        }
    },
    "is_sentry_object": false
}